#aV2021 12 21  0  0  0.00000000     288 DD+AD WGS84 FIT  NGA
## 2189 172800.00000000   300.00000000 59569 0.0000000000000
+   32     1  2  3  4  5  6  7  8  9 10 11 12 13 14 15 16 17
+         18 19 20 21 22 23 24 25 26 27 28 29 30 31 32  0  0
+          0  0  0  0  0  0  0  0  0  0  0  0  0  0  0  0  0
+          0  0  0  0  0  0  0  0  0  0  0  0  0  0  0  0  0
+          0  0  0  0  0  0  0  0  0  0  0  0  0  0  0  0  0
++         2  2  2  2  2  2  2  2  2  2  2  2  2  2  2  2  2
++         2  2  2  2  2  2  2  2  2  2  2  2  2  2  2  0  0
++         0  0  0  0  0  0  0  0  0  0  0  0  0  0  0  0  0
++         0  0  0  0  0  0  0  0  0  0  0  0  0  0  0  0  0
++         0  0  0  0  0  0  0  0  0  0  0  0  0  0  0  0  0
%c cc cc ccc ccc cccc cccc cccc cccc ccccc ccccc ccccc ccccc
%c cc cc ccc ccc cccc cccc cccc cccc ccccc ccccc ccccc ccccc
%f  0.0000000  0.000000000  0.00000000000  0.000000000000000
%f  0.0000000  0.000000000  0.00000000000  0.000000000000000
%i    0    0    0    0      0      0      0      0         0
%i    0    0    0    0      0      0      0      0         0
/*      NGA, ST. LOUIS,MO.                                  
/*   EPHEMERIS COMPUTED FROM 2 DAYS OF DATA                 
/*   EPOCHA v7 SMOOTHER                                     
/*   G2139 IERS2010 SATIGS SATAPC                           
*  2021 12 21 18 55  0.00000000
P  1 -21106.615277 -14251.485361  -8411.534682    477.978332                    
V  1  10032.962761   2289.809487 -29712.291012     -0.100994                    
P  2   1433.557008  16108.813821  21718.352789   -646.389473                    
V  2 -25142.340619  -6802.756513   7020.221879     -0.011911                    
P  3 -12657.047902 -18759.995784  13883.972050    -49.342074                    
V  3  -1021.136656 -17809.696106 -24709.495267     -0.129441                    
P  4 -13736.271537  -8183.408058  21220.459368   -198.208176                    
V  4  21049.308972 -16810.838133   7066.974565      0.013928                    
P  5   5396.522356  25921.151503   -143.056744    -65.188671                    
V  5  -2945.183762    588.142793  31819.204797     -0.012971                    
P  6 -15079.432662   8561.664165  20206.386562    148.899606                    
V  6 -23458.736527  -9818.720222 -13329.690096      0.102390                    
P  7 -25490.204604  -5038.177141  -6264.823323    293.473787                    
V  7  -6825.407911  -5485.325325  29875.993794      0.043282                    
P  8  -3579.482165 -15943.502184 -20884.719374    -48.975175                    
V  8  20813.259536 -16506.318523   9367.824450     -0.014370                    
P  9 -20990.620791   2988.073398  15941.534562   -359.968625                    
V  9  14199.895241 -14773.588048  21335.424054      0.008137                    
P 10  12485.484337 -10747.542641 -20635.309018   -274.172193                    
V 10   5305.208150  26023.675590 -10565.243895     -0.091031                    
P 11  -1313.376304  15730.947502  21358.717488     10.811271                    
V 11 -25001.711099 -10534.335902   6205.169041     -0.036652                    
P 12  10268.889416  21192.370391  12157.256839   -144.146876                    
V 12   -600.396753  15896.933562 -26509.309524     -0.056188                    
P 13  -5417.199021  18323.164774 -18536.395918    233.002383                    
V 13 -20551.890105  10981.550609  17154.909744      0.058479                    
P 14 -13383.777422  10236.759988 -20519.988974    -58.825777                    
V 14  -4144.417245 -25772.349191 -10214.387501     -0.060012                    
P 15   6400.647647  15739.977953 -20755.893029    -97.455665                    
V 15 -18492.029443  17794.072850   8275.531889      0.028299                    
P 16   -134.569621 -26153.196396   2562.813979   -443.893363                    
V 16   3136.360183   3390.819693  32076.711049     -0.058706                    
P 17 -22657.653175  13256.685605  -3719.145925    550.670935                    
V 17   2985.221066  -4850.582855 -31697.951735      0.053463                    
P 18  25089.062745   4391.802757  -7713.749923    275.462051                    
V 18   8198.909099   5756.229907  29856.284312     -0.067670                    
P 19 -20321.058204  16436.424292   3903.601390     95.210206                    
V 19  -5738.366954    908.361043 -31755.952966      0.049983                    
P 20   -150.522251  24485.616883  10595.445498    517.539370                    
V 20  -6806.244482 -11898.658748  27109.920930     -0.001807                    
P 21 -15307.586069 -15422.574205 -14980.029058    154.299719                    
V 21  19749.172448   3795.864909 -22466.964779      0.009364                    
P 22 -11046.821271 -23568.969215   5996.762957   -436.028030                    
V 22   1119.226565  -7959.752218 -29870.522667      0.089604                    
P 23  15485.353416   1985.216227 -21515.807474     19.417742                    
V 23   4696.769029  26841.546423   5773.617919     -0.040760                    
P 24  18652.102380  14956.490000 -12282.250973    275.655928                    
V 24 -15187.293878  -1735.476870 -25368.981562      0.014819                    
P 25  15230.521764  10404.268368  18940.140352    259.192204                    
V 25   2783.135992  24416.946902 -15155.265130      0.057024                    
P 26   6770.679346 -20631.769726  15016.740957    167.143327                    
V 26   6730.469215  18367.045629  22396.193005      0.035608                    
P 27   7145.104219 -19913.361660 -15998.390215     16.344134                    
V 27  16710.436316 -11321.483947  22181.843837      0.293980                    
P 28  -9936.959296  18101.256581 -16298.245992    438.459539                    
V 28  -3160.437334 -21427.420913 -20973.139303     -0.077309                    
P 29  19010.217836   1713.699334  18455.378959   -457.029481                    
V 29 -18531.435608  14401.731627  17655.121381     -0.050476                    
P 30 -21782.570603   3128.545586 -14970.195513   -501.032087                    
V 30 -16816.133522  -9383.454159  22166.192716     -0.028777                    
P 31  13511.258740 -10148.828660  20479.800831   -156.145244                    
V 31  23964.252137  10566.539156 -10048.674579     -0.018549                    
P 32  20657.460018 -16512.201378   -713.000053    -38.466416                    
V 32   1166.014702   3049.033071 -31785.078169     -0.055581                    
EOF
